CCSDS_OMM_VERS = 2.0
CREATION_DATE  = 
ORIGINATOR     = 

OBJECT_NAME    = STARLINK-36373
OBJECT_ID      = 2026-040AA
CENTER_NAME    = EARTH
REF_FRAME      = TEME
TIME_SYSTEM    = UTC
MEAN_ELEMENT_THEORY = SGP/SGP4

EPOCH          = 2026-03-31T06:00:02.000160
MEAN_MOTION    = 15.52517050
ECCENTRICITY   = .00016682
INCLINATION    = 97.2851
RA_OF_ASC_NODE = 39.6961
ARG_OF_PERICENTER = 108.0713
MEAN_ANOMALY   = 288.9109

EPHEMERIS_TYPE = 0
CLASSIFICATION_TYPE = U
NORAD_CAT_ID   = 68039
ELEMENT_SET_NO = 999
REV_AT_EPOCH   = 584
BSTAR          = -.33323182E-1
MEAN_MOTION_DOT = -.181073E-1
MEAN_MOTION_DDOT = 0

CCSDS_OMM_VERS = 2.0
CREATION_DATE  = 
ORIGINATOR     = 

OBJECT_NAME    = STARLINK-36711
OBJECT_ID      = 2026-041A
CENTER_NAME    = EARTH
REF_FRAME      = TEME
TIME_SYSTEM    = UTC
MEAN_ELEMENT_THEORY = SGP/SGP4

EPOCH          = 2026-03-31T02:06:11.693376
MEAN_MOTION    = 15.75303969
ECCENTRICITY   = .0000914
INCLINATION    = 53.1575
RA_OF_ASC_NODE = 315.5819
ARG_OF_PERICENTER = 88.1145
MEAN_ANOMALY   = 271.9980

EPHEMERIS_TYPE = 0
CLASSIFICATION_TYPE = U
NORAD_CAT_ID   = 68040
ELEMENT_SET_NO = 999
REV_AT_EPOCH   = 459
BSTAR          = .10074333E-2
MEAN_MOTION_DOT = .157134E-2
MEAN_MOTION_DDOT = 0

CCSDS_OMM_VERS = 2.0
CREATION_DATE  = 
ORIGINATOR     = 

OBJECT_NAME    = STARLINK-36825
OBJECT_ID      = 2026-041B
CENTER_NAME    = EARTH
REF_FRAME      = TEME
TIME_SYSTEM    = UTC
MEAN_ELEMENT_THEORY = SGP/SGP4

EPOCH          = 2026-03-31T06:00:02.000160
MEAN_MOTION    = 15.75190620
ECCENTRICITY   = .00008138
INCLINATION    = 53.1584
RA_OF_ASC_NODE = 314.1430
ARG_OF_PERICENTER = 108.1746
MEAN_ANOMALY   = 42.3753

EPHEMERIS_TYPE = 0
CLASSIFICATION_TYPE = U
NORAD_CAT_ID   = 68041
ELEMENT_SET_NO = 999
REV_AT_EPOCH   = 584
BSTAR          = .40222823E-3
MEAN_MOTION_DOT = .61334E-3
MEAN_MOTION_DDOT = 0

CCSDS_OMM_VERS = 2.0
CREATION_DATE  = 
ORIGINATOR     = 

OBJECT_NAME    = STARLINK-36925
OBJECT_ID      = 2026-041C
CENTER_NAME    = EARTH
REF_FRAME      = TEME
TIME_SYSTEM    = UTC
MEAN_ELEMENT_THEORY = SGP/SGP4

EPOCH          = 2026-03-31T05:09:23.361408
MEAN_MOTION    = 15.75329043
ECCENTRICITY   = .00004138
INCLINATION    = 53.1566
RA_OF_ASC_NODE = 314.9531
ARG_OF_PERICENTER = 76.7088
MEAN_ANOMALY   = 283.3978

EPHEMERIS_TYPE = 0
CLASSIFICATION_TYPE = U
NORAD_CAT_ID   = 68042
ELEMENT_SET_NO = 999
REV_AT_EPOCH   = 461
BSTAR          = .15463512E-2
MEAN_MOTION_DOT = .244338E-2
MEAN_MOTION_DDOT = 0

CCSDS_OMM_VERS = 2.0
CREATION_DATE  = 
ORIGINATOR     = 

OBJECT_NAME    = STARLINK-36902
OBJECT_ID      = 2026-041D
CENTER_NAME    = EARTH
REF_FRAME      = TEME
TIME_SYSTEM    = UTC
MEAN_ELEMENT_THEORY = SGP/SGP4

EPOCH          = 2026-03-31T00:00:02.000160
MEAN_MOTION    = 15.75226603
ECCENTRICITY   = .00011336
INCLINATION    = 53.1587
RA_OF_ASC_NODE = 315.4933
ARG_OF_PERICENTER = 45.2195
MEAN_ANOMALY   = 75.3055

EPHEMERIS_TYPE = 0
CLASSIFICATION_TYPE = U
NORAD_CAT_ID   = 68043
ELEMENT_SET_NO = 999
REV_AT_EPOCH   = 580
BSTAR          = -.91117445E-4
MEAN_MOTION_DOT = -.14575E-3
MEAN_MOTION_DDOT = 0

CCSDS_OMM_VERS = 2.0
CREATION_DATE  = 
ORIGINATOR     = 

OBJECT_NAME    = STARLINK-36966
OBJECT_ID      = 2026-041E
CENTER_NAME    = EARTH
REF_FRAME      = TEME
TIME_SYSTEM    = UTC
MEAN_ELEMENT_THEORY = SGP/SGP4

EPOCH          = 2026-03-30T03:09:42.002496
MEAN_MOTION    = 15.75294349
ECCENTRICITY   = .00009312
INCLINATION    = 53.1585
RA_OF_ASC_NODE = 320.2848
ARG_OF_PERICENTER = 62.6191
MEAN_ANOMALY   = 297.4924

EPHEMERIS_TYPE = 0
CLASSIFICATION_TYPE = U
NORAD_CAT_ID   = 68044
ELEMENT_SET_NO = 999
REV_AT_EPOCH   = 444
BSTAR          = .13643822E-2
MEAN_MOTION_DOT = .214408E-2
MEAN_MOTION_DDOT = 0

CCSDS_OMM_VERS = 2.0
CREATION_DATE  = 
ORIGINATOR     = 

OBJECT_NAME    = STARLINK-36864
OBJECT_ID      = 2026-041F
CENTER_NAME    = EARTH
REF_FRAME      = TEME
TIME_SYSTEM    = UTC
MEAN_ELEMENT_THEORY = SGP/SGP4

EPOCH          = 2026-03-31T00:28:17.761728
MEAN_MOTION    = 15.75321172
ECCENTRICITY   = .00009281
INCLINATION    = 53.1592
RA_OF_ASC_NODE = 315.8682
ARG_OF_PERICENTER = 93.6800
MEAN_ANOMALY   = 266.4326

EPHEMERIS_TYPE = 0
CLASSIFICATION_TYPE = U
NORAD_CAT_ID   = 68045
ELEMENT_SET_NO = 999
REV_AT_EPOCH   = 458
BSTAR          = .14034152E-2
MEAN_MOTION_DOT = .220992E-2
MEAN_MOTION_DDOT = 0

CCSDS_OMM_VERS = 2.0
CREATION_DATE  = 
ORIGINATOR     = 

OBJECT_NAME    = STARLINK-36321
OBJECT_ID      = 2026-041G
CENTER_NAME    = EARTH
REF_FRAME      = TEME
TIME_SYSTEM    = UTC
MEAN_ELEMENT_THEORY = SGP/SGP4

EPOCH          = 2026-03-31T05:54:31.794912
MEAN_MOTION    = 15.75331398
ECCENTRICITY   = .0000655
INCLINATION    = 53.1569
RA_OF_ASC_NODE = 314.4256
ARG_OF_PERICENTER = 44.6594
MEAN_ANOMALY   = 315.4479

EPHEMERIS_TYPE = 0
CLASSIFICATION_TYPE = U
NORAD_CAT_ID   = 68046
ELEMENT_SET_NO = 999
REV_AT_EPOCH   = 462
BSTAR          = .16648918E-2
MEAN_MOTION_DOT = .263754E-2
MEAN_MOTION_DDOT = 0

CCSDS_OMM_VERS = 2.0
CREATION_DATE  = 
ORIGINATOR     = 

OBJECT_NAME    = STARLINK-36181
OBJECT_ID      = 2026-041H
CENTER_NAME    = EARTH
REF_FRAME      = TEME
TIME_SYSTEM    = UTC
MEAN_ELEMENT_THEORY = SGP/SGP4

EPOCH          = 2026-03-31T06:00:02.000160
MEAN_MOTION    = 15.75196289
ECCENTRICITY   = .00012993
INCLINATION    = 53.1582
RA_OF_ASC_NODE = 314.1965
ARG_OF_PERICENTER = 51.8548
MEAN_ANOMALY   = 72.9357

EPHEMERIS_TYPE = 0
CLASSIFICATION_TYPE = U
NORAD_CAT_ID   = 68047
ELEMENT_SET_NO = 999
REV_AT_EPOCH   = 572
BSTAR          = .35563788E-3
MEAN_MOTION_DOT = .54123E-3
MEAN_MOTION_DDOT = 0

CCSDS_OMM_VERS = 2.0
CREATION_DATE  = 
ORIGINATOR     = 

OBJECT_NAME    = STARLINK-36318
OBJECT_ID      = 2026-041J
CENTER_NAME    = EARTH
REF_FRAME      = TEME
TIME_SYSTEM    = UTC
MEAN_ELEMENT_THEORY = SGP/SGP4

EPOCH          = 2026-03-31T04:56:18.689568
MEAN_MOTION    = 15.75335628
ECCENTRICITY   = .00010951
INCLINATION    = 53.1593
RA_OF_ASC_NODE = 314.8943
ARG_OF_PERICENTER = 150.2179
MEAN_ANOMALY   = 209.8904

EPHEMERIS_TYPE = 0
CLASSIFICATION_TYPE = U
NORAD_CAT_ID   = 68048
ELEMENT_SET_NO = 999
REV_AT_EPOCH   = 461
BSTAR          = .13056251E-2
MEAN_MOTION_DOT = .205292E-2
MEAN_MOTION_DDOT = 0

CCSDS_OMM_VERS = 2.0
CREATION_DATE  = 
ORIGINATOR     = 

OBJECT_NAME    = STARLINK-36885
OBJECT_ID      = 2026-041K
CENTER_NAME    = EARTH
REF_FRAME      = TEME
TIME_SYSTEM    = UTC
MEAN_ELEMENT_THEORY = SGP/SGP4

EPOCH          = 2026-03-31T00:21:45.651744
MEAN_MOTION    = 15.75323676
ECCENTRICITY   = .00008116
INCLINATION    = 53.1598
RA_OF_ASC_NODE = 315.8371
ARG_OF_PERICENTER = 116.3245
MEAN_ANOMALY   = 243.7859

EPHEMERIS_TYPE = 0
CLASSIFICATION_TYPE = U
NORAD_CAT_ID   = 68049
ELEMENT_SET_NO = 999
REV_AT_EPOCH   = 458
BSTAR          = .13587574E-2
MEAN_MOTION_DOT = .213779E-2
MEAN_MOTION_DDOT = 0

CCSDS_OMM_VERS = 2.0
CREATION_DATE  = 
ORIGINATOR     = 

OBJECT_NAME    = STARLINK-36945
OBJECT_ID      = 2026-041L
CENTER_NAME    = EARTH
REF_FRAME      = TEME
TIME_SYSTEM    = UTC
MEAN_ELEMENT_THEORY = SGP/SGP4

EPOCH          = 2026-03-31T02:32:40.471872
MEAN_MOTION    = 15.75339937
ECCENTRICITY   = .00015356
INCLINATION    = 53.1589
RA_OF_ASC_NODE = 314.9666
ARG_OF_PERICENTER = 25.7138
MEAN_ANOMALY   = 334.3958

EPHEMERIS_TYPE = 0
CLASSIFICATION_TYPE = U
NORAD_CAT_ID   = 68050
ELEMENT_SET_NO = 999
REV_AT_EPOCH   = 460
BSTAR          = .15800793E-2
MEAN_MOTION_DOT = .249959E-2
MEAN_MOTION_DDOT = 0

