STARLINK-36373          
1 68039U 26040AA  26090.25002315 -.01810730  00000+0 -33323-1 0  9999
2 68039  97.2851  39.6961 0001668 108.0713 288.9109 15.52517050  5840
STARLINK-36711          
1 68040U 26041A   26090.08763534  .00157134  00000+0  10074-2 0  9998
2 68040  53.1575 315.5819 0000914  88.1145 271.9980 15.75303969  4591
STARLINK-36825          
1 68041U 26041B   26090.25002315  .00061334  00000+0  40223-3 0  9997
2 68041  53.1584 314.1430 0000813 108.1746  42.3753 15.75190620  5849
STARLINK-36925          
1 68042U 26041C   26090.21485372  .00244338  00000+0  15464-2 0  9997
2 68042  53.1566 314.9531 0000413  76.7088 283.3978 15.75329043  4618
STARLINK-36902          
1 68043U 26041D   26090.00002315 -.00014575  00000+0 -91117-4 0  9998
2 68043  53.1587 315.4933 0001133  45.2195  75.3055 15.75226603  5809
STARLINK-36966          
1 68044U 26041E   26089.13173614  .00214408  00000+0  13644-2 0  9994
2 68044  53.1585 320.2848 0000931  62.6191 297.4924 15.75294349  4444
STARLINK-36864          
1 68045U 26041F   26090.01965002  .00220992  00000+0  14034-2 0  9993
2 68045  53.1592 315.8682 0000928  93.6800 266.4326 15.75321172  4588
STARLINK-36321          
1 68046U 26041G   26090.24620133  .00263754  00000+0  16649-2 0  9999
2 68046  53.1569 314.4256 0000655  44.6594 315.4479 15.75331398  4628
STARLINK-36181          
1 68047U 26041H   26090.25002315  .00054123  00000+0  35564-3 0  9993
2 68047  53.1582 314.1965 0001299  51.8548  72.9357 15.75196289  5722
STARLINK-36318          
1 68048U 26041J   26090.20577187  .00205292  00000+0  13056-2 0  9999
2 68048  53.1593 314.8943 0001095 150.2179 209.8904 15.75335628  4614
STARLINK-36885          
1 68049U 26041K   26090.01511171  .00213779  00000+0  13588-2 0  9999
2 68049  53.1598 315.8371 0000811 116.3245 243.7859 15.75323676  4580
STARLINK-36945          
1 68050U 26041L   26090.10602398  .00249959  00000+0  15801-2 0  9992
2 68050  53.1589 314.9666 0001535  25.7138 334.3958 15.75339937  4604
